GSAT0215 (GALILEO 19)   
1 43055U 17079A   26113.46347810 -.00000022  00000+0  00000+0 0  9990
2 43055  55.0907 223.0118 0001428 264.4741  95.5096  1.70474699 52058
GSAT0216 (GALILEO 20)   
1 43056U 17079B   26114.92781412 -.00000034  00000+0  00000+0 0  9996
2 43056  55.0895 222.9715 0002775 284.1808  75.7828  1.70474805 52091
GSAT0217 (GALILEO 21)   
1 43057U 17079C   26116.32174354 -.00000039  00000+0  00000+0 0  9999
2 43057  55.0878 222.9311 0002278 305.0014  54.9682  1.70474773 52108
GSAT0218 (GALILEO 22)   
1 43058U 17079D   26115.95522277 -.00000039  00000+0  00000+0 0  9999
2 43058  55.0879 222.9388 0003183 277.2874  82.6679  1.70474761 52127
GSAT0221 (GALILEO 25)   
1 43564U 18060A   26114.09926935 -.00000088  00000+0  00000+0 0  9999
2 43564  57.1855 343.2419 0003847 321.5085  38.5036  1.70475641 48245
GSAT0222 (GALILEO 26)   
1 43565U 18060B   26115.49200276 -.00000090  00000+0  00000+0 0  9991
2 43565  57.1892 343.2075 0002413 289.5902  70.4237  1.70475419 48313
GSAT0219 (GALILEO 23)   
1 43566U 18060C   26113.95323101 -.00000088  00000+0  00000+0 0  9991
2 43566  57.1884 343.2507 0003351 340.2281  19.7984  1.70475588 48268
GSAT0220 (GALILEO 24)   
1 43567U 18060D   26117.10722406 -.00000091  00000+0  00000+0 0  9998
2 43567  57.1835 343.1645 0003172  19.9224 340.1322  1.70475700 48303
GSAT0223 (GALILEO 27)   
1 49809U 21116A   26116.95302962 -.00000091  00000+0  00000+0 0  9992
2 49809  57.1768 343.0587 0000603 260.8560  95.4130  1.70475733 27303
GSAT0224 (GALILEO 28)   
1 49810U 21116B   26114.72218082 -.00000089  00000+0  00000+0 0  9993
2 49810  57.1774 343.1180 0000625  14.3979 165.3634  1.70475626 27297
GSAT0225 (GALILEO 29)   
1 59598U 24079A   26116.51256791  .00000043  00000+0  00000+0 0  9995
2 59598  55.0873 102.5222 0002644 283.7060 268.0228  1.70474393 12438
GSAT0227 (GALILEO 30)   
1 59600U 24079C   26116.97013875  .00000041  00000+0  00000+0 0  9991
2 59600  55.0827 102.5083 0001264  14.0321 345.9647  1.70474385 12495
GSAT0232 (GALILEO 32)   
1 61182U 24167A   26115.45016990 -.00000037  00000+0  00000+0 0  9996
2 61182  55.2008 222.7596 0004844 214.4336 148.2272  1.70474394  9987
GSAT0226 (GALILEO 31)   
1 61183U 24167B   26117.06262813 -.00000038  00000+0  00000+0 0  9994
2 61183  55.1989 222.7226 0001799 195.0012 168.6094  1.70474449  9985
GSAT0233 (GALILEO 33)   
1 67160U 25302A   26116.60777961  .00000042  00000+0  00000+0 0  9995
2 67160  54.3025 103.5985 0002100 244.3299 296.6080  1.70474442  2240
GSAT0234 (GALILEO 34)   
1 67162U 25302C   26117.48698374  .00000039  00000+0  00000+0 0  9990
2 67162  54.3058 103.5724 0003915 291.9909 248.6444  1.70474494  2316
